[{"OBJECT_NAME":"SL-8 R/B","OBJECT_ID":"1979-089B","EPOCH":"2026-04-05T05:46:32.714688","MEAN_MOTION":14.42369799,"ECCENTRICITY":0.00164895,"INCLINATION":74.0703,"RA_OF_ASC_NODE":41.8915,"ARG_OF_PERICENTER":210.7878,"MEAN_ANOMALY":149.2313,"EPHEMERIS_TYPE":0,"CLASSIFICATION_TYPE":"U","NORAD_CAT_ID":11574,"ELEMENT_SET_NO":999,"REV_AT_EPOCH":43993,"BSTAR":0.00014330683,"MEAN_MOTION_DOT":4.48e-6,"MEAN_MOTION_DDOT":0},{"OBJECT_NAME":"SL-14 R/B","OBJECT_ID":"1980-005B","EPOCH":"2026-04-05T05:41:52.675008","MEAN_MOTION":14.90963526,"ECCENTRICITY":0.0017219,"INCLINATION":82.5107,"RA_OF_ASC_NODE":282.0459,"ARG_OF_PERICENTER":76.3357,"MEAN_ANOMALY":283.9778,"EPHEMERIS_TYPE":0,"CLASSIFICATION_TYPE":"U","NORAD_CAT_ID":11672,"ELEMENT_SET_NO":999,"REV_AT_EPOCH":48044,"BSTAR":7.9957723e-5,"MEAN_MOTION_DOT":8.17e-6,"MEAN_MOTION_DDOT":0},{"OBJECT_NAME":"SL-8 R/B","OBJECT_ID":"1981-003B","EPOCH":"2026-04-05T05:11:08.654496","MEAN_MOTION":15.122353,"ECCENTRICITY":0.02596082,"INCLINATION":82.9347,"RA_OF_ASC_NODE":265.4699,"ARG_OF_PERICENTER":86.5099,"MEAN_ANOMALY":276.5785,"EPHEMERIS_TYPE":0,"CLASSIFICATION_TYPE":"U","NORAD_CAT_ID":12139,"ELEMENT_SET_NO":999,"REV_AT_EPOCH":31868,"BSTAR":0.00066451132,"MEAN_MOTION_DOT":0.00026742,"MEAN_MOTION_DDOT":0},{"OBJECT_NAME":"SL-3 R/B","OBJECT_ID":"1981-046B","EPOCH":"2026-04-05T06:06:35.477856","MEAN_MOTION":15.42699969,"ECCENTRICITY":0.00180576,"INCLINATION":81.2293,"RA_OF_ASC_NODE":257.8222,"ARG_OF_PERICENTER":287.5998,"MEAN_ANOMALY":72.3273,"EPHEMERIS_TYPE":0,"CLASSIFICATION_TYPE":"U","NORAD_CAT_ID":12465,"ELEMENT_SET_NO":999,"REV_AT_EPOCH":44252,"BSTAR":0.00035338395,"MEAN_MOTION_DOT":0.00015547,"MEAN_MOTION_DDOT":0},{"OBJECT_NAME":"SL-3 R/B","OBJECT_ID":"1981-103B","EPOCH":"2026-04-05T06:35:59.966304","MEAN_MOTION":15.21711769,"ECCENTRICITY":0.00131125,"INCLINATION":81.1606,"RA_OF_ASC_NODE":182.2451,"ARG_OF_PERICENTER":192.2554,"MEAN_ANOMALY":167.8361,"EPHEMERIS_TYPE":0,"CLASSIFICATION_TYPE":"U","NORAD_CAT_ID":12904,"ELEMENT_SET_NO":999,"REV_AT_EPOCH":97727,"BSTAR":0.0002745777,"MEAN_MOTION_DOT":6.254e-5,"MEAN_MOTION_DDOT":0},{"OBJECT_NAME":"SL-3 R/B","OBJECT_ID":"1982-013B","EPOCH":"2026-04-05T06:32:32.226144","MEAN_MOTION":15.2226714,"ECCENTRICITY":0.00235297,"INCLINATION":81.1719,"RA_OF_ASC_NODE":129.6078,"ARG_OF_PERICENTER":90.7526,"MEAN_ANOMALY":269.6402,"EPHEMERIS_TYPE":0,"CLASSIFICATION_TYPE":"U","NORAD_CAT_ID":13068,"ELEMENT_SET_NO":999,"REV_AT_EPOCH":40839,"BSTAR":0.0002001332,"MEAN_MOTION_DOT":4.665e-5,"MEAN_MOTION_DDOT":0},{"OBJECT_NAME":"SL-3 R/B","OBJECT_ID":"1982-039B","EPOCH":"2026-04-05T07:01:36.186816","MEAN_MOTION":15.10244354,"ECCENTRICITY":0.00281429,"INCLINATION":81.1553,"RA_OF_ASC_NODE":185.2847,"ARG_OF_PERICENTER":235.6286,"MEAN_ANOMALY":124.2278,"EPHEMERIS_TYPE":0,"CLASSIFICATION_TYPE":"U","NORAD_CAT_ID":13154,"ELEMENT_SET_NO":999,"REV_AT_EPOCH":38565,"BSTAR":0.00022159094,"MEAN_MOTION_DOT":3.68e-5,"MEAN_MOTION_DDOT":0},{"OBJECT_NAME":"SL-3 R/B","OBJECT_ID":"1982-079B","EPOCH":"2026-04-05T05:47:04.297344","MEAN_MOTION":15.25167086,"ECCENTRICITY":0.00253517,"INCLINATION":81.1471,"RA_OF_ASC_NODE":161.7242,"ARG_OF_PERICENTER":77.7164,"MEAN_ANOMALY":282.6906,"EPHEMERIS_TYPE":0,"CLASSIFICATION_TYPE":"U","NORAD_CAT_ID":13403,"ELEMENT_SET_NO":999,"REV_AT_EPOCH":38174,"BSTAR":0.00026263368,"MEAN_MOTION_DOT":6.672e-5,"MEAN_MOTION_DDOT":0},{"OBJECT_NAME":"SL-14 R/B","OBJECT_ID":"1982-092B","EPOCH":"2026-04-05T03:55:08.181696","MEAN_MOTION":14.86691931,"ECCENTRICITY":0.00195183,"INCLINATION":82.5649,"RA_OF_ASC_NODE":116.6315,"ARG_OF_PERICENTER":209.4272,"MEAN_ANOMALY":218.5798,"EPHEMERIS_TYPE":0,"CLASSIFICATION_TYPE":"U","NORAD_CAT_ID":13553,"ELEMENT_SET_NO":999,"REV_AT_EPOCH":33286,"BSTAR":6.3602972e-5,"MEAN_MOTION_DOT":5.91e-6,"MEAN_MOTION_DDOT":0},{"OBJECT_NAME":"SL-3 R/B","OBJECT_ID":"1983-010B","EPOCH":"2026-04-05T02:09:09.119232","MEAN_MOTION":15.47283831,"ECCENTRICITY":0.00153965,"INCLINATION":81.1028,"RA_OF_ASC_NODE":329.861,"ARG_OF_PERICENTER":318.9513,"MEAN_ANOMALY":41.0573,"EPHEMERIS_TYPE":0,"CLASSIFICATION_TYPE":"U","NORAD_CAT_ID":13819,"ELEMENT_SET_NO":999,"REV_AT_EPOCH":36202,"BSTAR":0.00033474362,"MEAN_MOTION_DOT":0.00017184,"MEAN_MOTION_DDOT":0},{"OBJECT_NAME":"SL-3 R/B","OBJECT_ID":"1983-075B","EPOCH":"2026-04-05T06:49:52.373280","MEAN_MOTION":15.39093083,"ECCENTRICITY":0.00229072,"INCLINATION":97.6136,"RA_OF_ASC_NODE":100.8822,"ARG_OF_PERICENTER":131.4249,"MEAN_ANOMALY":228.8969,"EPHEMERIS_TYPE":0,"CLASSIFICATION_TYPE":"U","NORAD_CAT_ID":14208,"ELEMENT_SET_NO":999,"REV_AT_EPOCH":33424,"BSTAR":0.0003536888,"MEAN_MOTION_DOT":0.00013742,"MEAN_MOTION_DDOT":0},{"OBJECT_NAME":"COSMOS 1536","OBJECT_ID":"1984-013A","EPOCH":"2026-04-05T05:54:14.539104","MEAN_MOTION":15.24222075,"ECCENTRICITY":0.00142263,"INCLINATION":82.5422,"RA_OF_ASC_NODE":81.4369,"ARG_OF_PERICENTER":180.6693,"MEAN_ANOMALY":179.4528,"EPHEMERIS_TYPE":0,"CLASSIFICATION_TYPE":"U","NORAD_CAT_ID":14699,"ELEMENT_SET_NO":999,"REV_AT_EPOCH":27666,"BSTAR":0.00036294868,"MEAN_MOTION_DOT":8.905e-5,"MEAN_MOTION_DDOT":0},{"OBJECT_NAME":"SL-14 R/B","OBJECT_ID":"1984-027B","EPOCH":"2026-04-05T02:08:25.062144","MEAN_MOTION":14.86007203,"ECCENTRICITY":0.00166391,"INCLINATION":82.5428,"RA_OF_ASC_NODE":220.2528,"ARG_OF_PERICENTER":243.9096,"MEAN_ANOMALY":116.0408,"EPHEMERIS_TYPE":0,"CLASSIFICATION_TYPE":"U","NORAD_CAT_ID":14820,"ELEMENT_SET_NO":999,"REV_AT_EPOCH":25155,"BSTAR":8.1955775e-5,"MEAN_MOTION_DOT":7.42e-6,"MEAN_MOTION_DDOT":0},{"OBJECT_NAME":"SL-8 R/B","OBJECT_ID":"1985-006B","EPOCH":"2026-04-05T07:13:46.405056","MEAN_MOTION":14.37803448,"ECCENTRICITY":0.0017441,"INCLINATION":74.0462,"RA_OF_ASC_NODE":212.1792,"ARG_OF_PERICENTER":121.9276,"MEAN_ANOMALY":270.5976,"EPHEMERIS_TYPE":0,"CLASSIFICATION_TYPE":"U","NORAD_CAT_ID":15483,"ELEMENT_SET_NO":999,"REV_AT_EPOCH":15785,"BSTAR":0.00014291913,"MEAN_MOTION_DOT":4.05e-6,"MEAN_MOTION_DDOT":0},{"OBJECT_NAME":"SL-12 R/B(2)","OBJECT_ID":"1985-042D","EPOCH":"2026-04-05T03:37:26.036256","MEAN_MOTION":14.21990564,"ECCENTRICITY":0.00328403,"INCLINATION":71.1101,"RA_OF_ASC_NODE":31.8216,"ARG_OF_PERICENTER":84.1794,"MEAN_ANOMALY":12.2007,"EPHEMERIS_TYPE":0,"CLASSIFICATION_TYPE":"U","NORAD_CAT_ID":15772,"ELEMENT_SET_NO":999,"REV_AT_EPOCH":11815,"BSTAR":0.00010186142,"MEAN_MOTION_DOT":1.79e-6,"MEAN_MOTION_DDOT":0},{"OBJECT_NAME":"SL-14 R/B","OBJECT_ID":"1985-069B","EPOCH":"2026-04-05T03:11:50.740224","MEAN_MOTION":14.86463317,"ECCENTRICITY":0.00203152,"INCLINATION":82.5304,"RA_OF_ASC_NODE":0.0751,"ARG_OF_PERICENTER":103.639,"MEAN_ANOMALY":256.7091,"EPHEMERIS_TYPE":0,"CLASSIFICATION_TYPE":"U","NORAD_CAT_ID":15945,"ELEMENT_SET_NO":999,"REV_AT_EPOCH":17676,"BSTAR":7.0979045e-5,"MEAN_MOTION_DOT":6.54e-6,"MEAN_MOTION_DDOT":0},{"OBJECT_NAME":"SL-16 R/B","OBJECT_ID":"1985-097B","EPOCH":"2026-04-05T05:55:01.232256","MEAN_MOTION":14.16602446,"ECCENTRICITY":0.00091561,"INCLINATION":71.0009,"RA_OF_ASC_NODE":84.6409,"ARG_OF_PERICENTER":227.8787,"MEAN_ANOMALY":152.6979,"EPHEMERIS_TYPE":0,"CLASSIFICATION_TYPE":"U","NORAD_CAT_ID":16182,"ELEMENT_SET_NO":999,"REV_AT_EPOCH":9099,"BSTAR":-3.967972e-5,"MEAN_MOTION_DOT":-1.27e-6,"MEAN_MOTION_DDOT":0}]
